start=new Date('2022-01-13T00:00:00.000Z').valueOf();
sats=[{"REV_AT_EPOCH":"3963","MEAN_MOTION":"15.06395764","PERIOD":"95.592","REF_FRAME":"TEME","OBJECT_ID":"2021-036J","FILE":"3270709","PERIAPSIS":"546.217","EPOCH":"2022-01-12T12:09:16.722720","MEAN_MOTION_DDOT":"0.0000000000000","MEAN_ANOMALY":"287.9359","LAUNCH_DATE":"2021-04-29","SITE":"AFETR","BSTAR":"0.00004669600000","MEAN_ELEMENT_THEORY":"SGP4","TLE_LINE2":"2 48284  53.0554  52.5078 0001458  72.1789 287.9359 15.06395764 39639","SEMIMAJOR_AXIS":"6925.362","TIME_SYSTEM":"UTC","ARG_OF_PERICENTER":"72.1789","CENTER_NAME":"EARTH","TLE_LINE1":"1 48284U 21036J   22012.50644355  .00000414  00000-0  46696-4 0  9991","DECAY_DATE":null,"CLASSIFICATION_TYPE":"U","RCS_SIZE":"LARGE","ELEMENT_SET_NO":"999","COUNTRY_CODE":"US","RA_OF_ASC_NODE":"52.5078","ECCENTRICITY":"0.00014580","GP_ID":"193734760","APOAPSIS":"548.236","INCLINATION":"53.0554","MEAN_MOTION_DOT":"0.00000414","NORAD_CAT_ID":"48284","OBJECT_TYPE":"PAYLOAD","OBJECT_NAME":"STARLINK-2564","EPHEMERIS_TYPE":"0"},{"EPOCH":"2022-01-12T08:52:53.473440","PERIAPSIS":"546.230","FILE":"3270709","OBJECT_ID":"2021-036K","REF_FRAME":"TEME","PERIOD":"95.592","MEAN_MOTION":"15.06395853","REV_AT_EPOCH":"3961","MEAN_ELEMENT_THEORY":"SGP4","BSTAR":"0.00003570900000","SITE":"AFETR","LAUNCH_DATE":"2021-04-29","MEAN_ANOMALY":"279.6504","MEAN_MOTION_DDOT":"0.0000000000000","DECAY_DATE":null,"TLE_LINE1":"1 48285U 21036K   22012.37006335  .00000250  00000-0  35709-4 0  9998","CENTER_NAME":"EARTH","ARG_OF_PERICENTER":"80.4647","SEMIMAJOR_AXIS":"6925.361","TIME_SYSTEM":"UTC","TLE_LINE2":"2 48285  53.0564  53.1238 0001438  80.4647 279.6504 15.06395853 39616","OBJECT_NAME":"STARLINK-2548","OBJECT_TYPE":"PAYLOAD","EPHEMERIS_TYPE":"0","NORAD_CAT_ID":"48285","MEAN_MOTION_DOT":"0.00000250","INCLINATION":"53.0564","APOAPSIS":"548.222","ECCENTRICITY":"0.00014380","GP_ID":"193734511","RA_OF_ASC_NODE":"53.1238","COUNTRY_CODE":"US","ELEMENT_SET_NO":"999","RCS_SIZE":"LARGE","CLASSIFICATION_TYPE":"U"},{"PERIAPSIS":"546.295","EPOCH":"2022-01-12T11:58:40.532736","OBJECT_ID":"2021-036L","FILE":"3270709","MEAN_MOTION":"15.06394248","PERIOD":"95.593","REF_FRAME":"TEME","REV_AT_EPOCH":"3963","SITE":"AFETR","BSTAR":"-0.00005500800000","MEAN_ELEMENT_THEORY":"SGP4","LAUNCH_DATE":"2021-04-29","MEAN_ANOMALY":"292.0141","MEAN_MOTION_DDOT":"0.0000000000000","DECAY_DATE":null,"TLE_LINE1":"1 48286U 21036L   22012.49908024 -.00001101  00000-0 -55008-4 0  9990","ARG_OF_PERICENTER":"68.0991","CENTER_NAME":"EARTH","SEMIMAJOR_AXIS":"6925.366","TIME_SYSTEM":"UTC","TLE_LINE2":"2 48286  53.0570  52.5542 0001352  68.0991 292.0141 15.06394248 39639","GP_ID":"193733757","ECCENTRICITY":"0.00013520","APOAPSIS":"548.167","INCLINATION":"53.0570","MEAN_MOTION_DOT":"-0.00001101","OBJECT_TYPE":"PAYLOAD","OBJECT_NAME":"STARLINK-2547","EPHEMERIS_TYPE":"0","NORAD_CAT_ID":"48286","COUNTRY_CODE":"US","RA_OF_ASC_NODE":"52.5542","ELEMENT_SET_NO":"999","CLASSIFICATION_TYPE":"U","RCS_SIZE":"LARGE"},{"ARG_OF_PERICENTER":"69.5809","CENTER_NAME":"EARTH","DECAY_DATE":null,"TLE_LINE1":"1 48287U 21036M   22012.49538922 -.00000675  00000-0 -26410-4 0  9997","TLE_LINE2":"2 48287  53.0557  52.5592 0001426  69.5809 290.5333 15.06399900 39632","SEMIMAJOR_AXIS":"6925.349","TIME_SYSTEM":"UTC","COUNTRY_CODE":"US","RA_OF_ASC_NODE":"52.5592","GP_ID":"193734009","ECCENTRICITY":"0.00014260","APOAPSIS":"548.201","INCLINATION":"53.0557","MEAN_MOTION_DOT":"-0.00000675","OBJECT_NAME":"STARLINK-2566","OBJECT_TYPE":"PAYLOAD","NORAD_CAT_ID":"48287","EPHEMERIS_TYPE":"0","CLASSIFICATION_TYPE":"U","RCS_SIZE":"LARGE","ELEMENT_SET_NO":"999","OBJECT_ID":"2021-036M","FILE":"3270709","PERIAPSIS":"546.226","EPOCH":"2022-01-12T11:53:21.628608","REV_AT_EPOCH":"3963","MEAN_MOTION":"15.06399900","PERIOD":"95.592","REF_FRAME":"TEME","LAUNCH_DATE":"2021-04-29","SITE":"AFETR","BSTAR":"-0.00002641000000","MEAN_ELEMENT_THEORY":"SGP4","MEAN_MOTION_DDOT":"0.0000000000000","MEAN_ANOMALY":"290.5333"},{"MEAN_MOTION_DDOT":"0.0000000000000","MEAN_ANOMALY":"275.6073","LAUNCH_DATE":"2021-04-29","MEAN_ELEMENT_THEORY":"SGP4","BSTAR":"-0.00003792500000","SITE":"AFETR","REV_AT_EPOCH":"3963","REF_FRAME":"TEME","PERIOD":"95.592","MEAN_MOTION":"15.06396200","FILE":"3270709","OBJECT_ID":"2021-036N","EPOCH":"2022-01-12T11:48:03.343968","PERIAPSIS":"546.052","RCS_SIZE":"LARGE","CLASSIFICATION_TYPE":"U","ELEMENT_SET_NO":"999","RA_OF_ASC_NODE":"52.5865","COUNTRY_CODE":"US","OBJECT_NAME":"STARLINK-2562","OBJECT_TYPE":"PAYLOAD","NORAD_CAT_ID":"48288","EPHEMERIS_TYPE":"0","MEAN_MOTION_DOT":"-0.00000846","INCLINATION":"53.0570","APOAPSIS":"548.398","GP_ID":"193734261","ECCENTRICITY":"0.00016940","TLE_LINE2":"2 48288  53.0570  52.5865 0001694  84.5109 275.6073 15.06396200 39633","SEMIMAJOR_AXIS":"6925.360","TIME_SYSTEM":"UTC","CENTER_NAME":"EARTH","ARG_OF_PERICENTER":"84.5109","DECAY_DATE":null,"TLE_LINE1":"1 48288U 21036N   22012.49170537 -.00000846  00000-0 -37925-4 0  9995"},{"ELEMENT_SET_NO":"999","RCS_SIZE":"LARGE","CLASSIFICATION_TYPE":"U","MEAN_MOTION_DOT":"-0.00001486","INCLINATION":"53.0556","OBJECT_TYPE":"PAYLOAD","OBJECT_NAME":"STARLINK-2545","NORAD_CAT_ID":"48289","EPHEMERIS_TYPE":"0","ECCENTRICITY":"0.00014930","GP_ID":"193735011","APOAPSIS":"548.269","RA_OF_ASC_NODE":"52.5917","COUNTRY_CODE":"US","SEMIMAJOR_AXIS":"6925.370","TIME_SYSTEM":"UTC","TLE_LINE2":"2 48289  53.0556  52.5917 0001493  72.9326 287.1827 15.06392946 39633","DECAY_DATE":null,"TLE_LINE1":"1 48289U 21036P   22012.48802278 -.00001486  00000-0 -80911-4 0  9993","CENTER_NAME":"EARTH","ARG_OF_PERICENTER":"72.9326","MEAN_ANOMALY":"287.1827","MEAN_MOTION_DDOT":"0.0000000000000","BSTAR":"-0.00008091100000","MEAN_ELEMENT_THEORY":"SGP4","SITE":"AFETR","LAUNCH_DATE":"2021-04-29","PERIOD":"95.593","REF_FRAME":"TEME","MEAN_MOTION":"15.06392946","REV_AT_EPOCH":"3963","EPOCH":"2022-01-12T11:42:45.168192","PERIAPSIS":"546.201","FILE":"3270709","OBJECT_ID":"2021-036P"},{"REF_FRAME":"TEME","PERIOD":"95.592","MEAN_MOTION":"15.06400506","REV_AT_EPOCH":"3964","EPOCH":"2022-01-12T13:12:58.618944","PERIAPSIS":"546.207","FILE":"3270709","OBJECT_ID":"2021-036Q","MEAN_ANOMALY":"296.5374","MEAN_MOTION_DDOT":"0.0000000000000","MEAN_ELEMENT_THEORY":"SGP4","BSTAR":"-0.00001746700000","SITE":"AFETR","LAUNCH_DATE":"2021-04-29","SEMIMAJOR_AXIS":"6925.347","TIME_SYSTEM":"UTC","TLE_LINE2":"2 48290  53.0558  52.3324 0001451  63.5764 296.5374 15.06400506 39647","DECAY_DATE":null,"TLE_LINE1":"1 48290U 21036Q   22012.55067846 -.00000542  00000-0 -17467-4 0  9995","CENTER_NAME":"EARTH","ARG_OF_PERICENTER":"63.5764","ELEMENT_SET_NO":"999","RCS_SIZE":"LARGE","CLASSIFICATION_TYPE":"U","OBJECT_NAME":"STARLINK-2540","OBJECT_TYPE":"PAYLOAD","EPHEMERIS_TYPE":"0","NORAD_CAT_ID":"48290","INCLINATION":"53.0558","MEAN_MOTION_DOT":"-0.00000542","APOAPSIS":"548.217","GP_ID":"193733258","ECCENTRICITY":"0.00014510","RA_OF_ASC_NODE":"52.3324","COUNTRY_CODE":"US"},{"APOAPSIS":"548.238","GP_ID":"193733510","ECCENTRICITY":"0.00014750","OBJECT_TYPE":"PAYLOAD","OBJECT_NAME":"STARLINK-2555","EPHEMERIS_TYPE":"0","NORAD_CAT_ID":"48291","INCLINATION":"53.0561","MEAN_MOTION_DOT":"0.00000241","COUNTRY_CODE":"US","RA_OF_ASC_NODE":"52.6394","ELEMENT_SET_NO":"999","CLASSIFICATION_TYPE":"U","RCS_SIZE":"LARGE","TLE_LINE1":"1 48291U 21036R   22012.48063962  .00000241  00000-0  35106-4 0  9997","DECAY_DATE":null,"ARG_OF_PERICENTER":"67.4297","CENTER_NAME":"EARTH","SEMIMAJOR_AXIS":"6925.351","TIME_SYSTEM":"UTC","TLE_LINE2":"2 48291  53.0561  52.6394 0001475  67.4297 292.6848 15.06399148 39633","SITE":"AFETR","MEAN_ELEMENT_THEORY":"SGP4","BSTAR":"0.00003510600000","LAUNCH_DATE":"2021-04-29","MEAN_ANOMALY":"292.6848","MEAN_MOTION_DDOT":"0.0000000000000","PERIAPSIS":"546.195","EPOCH":"2022-01-12T11:32:07.263168","OBJECT_ID":"2021-036R","FILE":"3270709","MEAN_MOTION":"15.06399148","REF_FRAME":"TEME","PERIOD":"95.592","REV_AT_EPOCH":"3963"},{"MEAN_MOTION":"15.06396554","PERIOD":"95.592","REF_FRAME":"TEME","REV_AT_EPOCH":"3963","PERIAPSIS":"546.272","EPOCH":"2022-01-12T11:25:27.886080","OBJECT_ID":"2021-036S","FILE":"3270709","MEAN_ANOMALY":"291.5788","MEAN_MOTION_DDOT":"0.0000000000000","SITE":"AFETR","BSTAR":"-0.00006534200000","MEAN_ELEMENT_THEORY":"SGP4","LAUNCH_DATE":"2021-04-29","SEMIMAJOR_AXIS":"6925.359","TIME_SYSTEM":"UTC","TLE_LINE2":"2 48292  53.0559  52.6561 0001375  68.5348 291.5788 15.06396554 39634","TLE_LINE1":"1 48292U 21036S   22012.47601720 -.00001254  00000-0 -65342-4 0  9999","DECAY_DATE":null,"ARG_OF_PERICENTER":"68.5348","CENTER_NAME":"EARTH","ELEMENT_SET_NO":"999","CLASSIFICATION_TYPE":"U","RCS_SIZE":"LARGE","GP_ID":"193734761","ECCENTRICITY":"0.00013750","APOAPSIS":"548.176","MEAN_MOTION_DOT":"-0.00001254","INCLINATION":"53.0559","EPHEMERIS_TYPE":"0","OBJECT_TYPE":"PAYLOAD","OBJECT_NAME":"STARLINK-2542","NORAD_CAT_ID":"48292","COUNTRY_CODE":"US","RA_OF_ASC_NODE":"52.6561"},{"CENTER_NAME":"EARTH","ARG_OF_PERICENTER":"73.7443","TLE_LINE1":"1 48293U 21036T   22012.47327907 -.00000946  00000-0 -44615-4 0  9999","DECAY_DATE":null,"TLE_LINE2":"2 48293  53.0563  52.6662 0001456  73.7443 286.3706 15.06395961 39639","SEMIMAJOR_AXIS":"6925.361","TIME_SYSTEM":"UTC","RA_OF_ASC_NODE":"52.6662","COUNTRY_CODE":"US","OBJECT_TYPE":"PAYLOAD","NORAD_CAT_ID":"48293","OBJECT_NAME":"STARLINK-2550","EPHEMERIS_TYPE":"0","MEAN_MOTION_DOT":"-0.00000946","INCLINATION":"53.0563","APOAPSIS":"548.234","GP_ID":"193734512","ECCENTRICITY":"0.00014560","RCS_SIZE":"LARGE","CLASSIFICATION_TYPE":"U","ELEMENT_SET_NO":"999","FILE":"3270709","OBJECT_ID":"2021-036T","EPOCH":"2022-01-12T11:21:31.311648","PERIAPSIS":"546.218","REV_AT_EPOCH":"3963","REF_FRAME":"TEME","PERIOD":"95.592","MEAN_MOTION":"15.06395961","LAUNCH_DATE":"2021-04-29","MEAN_ELEMENT_THEORY":"SGP4","BSTAR":"-0.00004461500000","SITE":"AFETR","MEAN_MOTION_DDOT":"0.0000000000000","MEAN_ANOMALY":"286.3706"}];
